{
  "type": "FeatureCollection",
  "features": [
    {
      "type": "Feature",
      "properties": {
        "norad_id": 65729,
        "name": "DRAGONFLY",
        "group": "stations",
        "lat": -10.065699375661755,
        "lon": 143.6363044989454,
        "alt_km": 359.51302101694,
        "timestamp": "2025-12-09T14:52:24.958949+00:00",
        "meta_object_name": "DRAGONFLY",
        "meta_object_id": "1998-067XH",
        "meta_epoch": "2025-12-08T17:32:47.526432",
        "meta_mean_motion": 15.70229086,
        "meta_eccentricity": 0.00065245,
        "meta_inclination": 51.6249,
        "meta_ra_of_asc_node": 156.265,
        "meta_arg_of_pericenter": 251.495,
        "meta_mean_anomaly": 108.5339,
        "meta_ephemeris_type": 0,
        "meta_classification_type": "U",
        "meta_norad_cat_id": 65729,
        "meta_element_set_no": 999,
        "meta_rev_at_epoch": 1253,
        "meta_bstar": 0.0013272482,
        "meta_mean_motion_dot": 0.00167478,
        "meta_mean_motion_ddot": 0,
        "tle_line1": "1 65729U 98067XH  25342.73110563  .00167478  00000+0  13272-2 0  9990",
        "tle_line2": "2 65729  51.6249 156.2650 0006524 251.4950 108.5339 15.70229086 12536"
      },
      "geometry": {
        "type": "Point",
        "coordinates": [
          143.6363044989454,
          -10.065699375661755
        ]
      }
    },
    {
      "type": "Feature",
      "properties": {
        "norad_id": 65731,
        "name": "1998-067XK",
        "group": "stations",
        "lat": 49.9256314465679,
        "lon": -136.5899981491131,
        "alt_km": 369.66238833588704,
        "timestamp": "2025-12-09T14:52:24.958962+00:00",
        "meta_object_name": "1998-067XK",
        "meta_object_id": "1998-067XK",
        "meta_epoch": "2025-12-08T17:05:09.005856",
        "meta_mean_motion": 15.64723492,
        "meta_eccentricity": 0.00054045,
        "meta_inclination": 51.628,
        "meta_ra_of_asc_node": 157.6517,
        "meta_arg_of_pericenter": 220.4904,
        "meta_mean_anomaly": 139.5689,
        "meta_ephemeris_type": 0,
        "meta_classification_type": "U",
        "meta_norad_cat_id": 65731,
        "meta_element_set_no": 999,
        "meta_rev_at_epoch": 1251,
        "meta_bstar": 0.0010050991,
        "meta_mean_motion_dot": 0.00100336,
        "meta_mean_motion_ddot": 0,
        "tle_line1": "1 65731U 98067XK  25342.71190979  .00100336  00000+0  10051-2 0  9992",
        "tle_line2": "2 65731  51.6280 157.6517 0005404 220.4904 139.5689 15.64723492 12515"
      },
      "geometry": {
        "type": "Point",
        "coordinates": [
          -136.5899981491131,
          49.9256314465679
        ]
      }
    },
    {
      "type": "Feature",
      "properties": {
        "norad_id": 65732,
        "name": "RSP-03",
        "group": "stations",
        "lat": 14.74067804113061,
        "lon": 164.44747301564283,
        "alt_km": 368.13810402445324,
        "timestamp": "2025-12-09T14:52:24.958973+00:00",
        "meta_object_name": "RSP-03",
        "meta_object_id": "1998-067XL",
        "meta_epoch": "2025-12-08T18:54:04.824576",
        "meta_mean_motion": 15.67324417,
        "meta_eccentricity": 0.00061707,
        "meta_inclination": 51.626,
        "meta_ra_of_asc_node": 156.6485,
        "meta_arg_of_pericenter": 224.9015,
        "meta_mean_anomaly": 135.1483,
        "meta_ephemeris_type": 0,
        "meta_classification_type": "U",
        "meta_norad_cat_id": 65732,
        "meta_element_set_no": 999,
        "meta_rev_at_epoch": 1254,
        "meta_bstar": 0.0012544744,
        "meta_mean_motion_dot": 0.00139916,
        "meta_mean_motion_ddot": 0,
        "tle_line1": "1 65732U 98067XL  25342.78755584  .00139916  00000+0  12545-2 0  9995",
        "tle_line2": "2 65732  51.6260 156.6485 0006170 224.9015 135.1483 15.67324417 12544"
      },
      "geometry": {
        "type": "Point",
        "coordinates": [
          164.44747301564283,
          14.74067804113061
        ]
      }
    },
    {
      "type": "Feature",
      "properties": {
        "norad_id": 65733,
        "name": "GHS-01",
        "group": "stations",
        "lat": -37.12416064759786,
        "lon": 8.07766493295268,
        "alt_km": 349.9604903792506,
        "timestamp": "2025-12-09T14:52:24.958984+00:00",
        "meta_object_name": "GHS-01",
        "meta_object_id": "1998-067XM",
        "meta_epoch": "2025-12-09T00:10:31.774944",
        "meta_mean_motion": 15.72845555,
        "meta_eccentricity": 0.00068773,
        "meta_inclination": 51.6283,
        "meta_ra_of_asc_node": 154.3653,
        "meta_arg_of_pericenter": 253.5848,
        "meta_mean_anomaly": 106.4394,
        "meta_ephemeris_type": 0,
        "meta_classification_type": "U",
        "meta_norad_cat_id": 65733,
        "meta_element_set_no": 999,
        "meta_rev_at_epoch": 1259,
        "meta_bstar": 0.0015000957,
        "meta_mean_motion_dot": 0.0021266,
        "meta_mean_motion_ddot": 0,
        "tle_line1": "1 65733U 98067XM  25343.00731221  .00212660  00000+0  15001-2 0  9992",
        "tle_line2": "2 65733  51.6283 154.3653 0006877 253.5848 106.4394 15.72845555 12592"
      },
      "geometry": {
        "type": "Point",
        "coordinates": [
          8.07766493295268,
          -37.12416064759786
        ]
      }
    },
    {
      "type": "Feature",
      "properties": {
        "norad_id": 65941,
        "name": "YOTSUBA-KULOVER",
        "group": "stations",
        "lat": -51.562794534429564,
        "lon": 62.40011479644461,
        "alt_km": 394.89382824756285,
        "timestamp": "2025-12-09T14:52:24.958994+00:00",
        "meta_object_name": "YOTSUBA-KULOVER",
        "meta_object_id": "1998-067XN",
        "meta_epoch": "2025-12-08T16:11:16.679040",
        "meta_mean_motion": 15.58725095,
        "meta_eccentricity": 0.00016918,
        "meta_inclination": 51.6278,
        "meta_ra_of_asc_node": 160.3988,
        "meta_arg_of_pericenter": 209.1564,
        "meta_mean_anomaly": 150.9334,
        "meta_ephemeris_type": 0,
        "meta_classification_type": "U",
        "meta_norad_cat_id": 65941,
        "meta_element_set_no": 999,
        "meta_rev_at_epoch": 922,
        "meta_bstar": 0.00092611573,
        "meta_mean_motion_dot": 0.00072881,
        "meta_mean_motion_ddot": 0,
        "tle_line1": "1 65941U 98067XN  25342.67449860  .00072881  00000+0  92612-3 0  9993",
        "tle_line2": "2 65941  51.6278 160.3988 0001691 209.1564 150.9334 15.58725095  9220"
      },
      "geometry": {
        "type": "Point",
        "coordinates": [
          62.40011479644461,
          -51.562794534429564
        ]
      }
    },
    {
      "type": "Feature",
      "properties": {
        "norad_id": 65942,
        "name": "BOTAN",
        "group": "stations",
        "lat": -15.418089861267074,
        "lon": -12.334183662829144,
        "alt_km": 382.083392165674,
        "timestamp": "2025-12-09T14:52:24.959004+00:00",
        "meta_object_name": "BOTAN",
        "meta_object_id": "1998-067XP",
        "meta_epoch": "2025-12-08T18:03:33.084000",
        "meta_mean_motion": 15.61774772,
        "meta_eccentricity": 0.00036469,
        "meta_inclination": 51.6289,
        "meta_ra_of_asc_node": 159.4206,
        "meta_arg_of_pericenter": 205.1392,
        "meta_mean_anomaly": 154.9425,
        "meta_ephemeris_type": 0,
        "meta_classification_type": "U",
        "meta_norad_cat_id": 65942,
        "meta_element_set_no": 999,
        "meta_rev_at_epoch": 924,
        "meta_bstar": 0.0011867098,
        "meta_mean_motion_dot": 0.00105605,
        "meta_mean_motion_ddot": 0,
        "tle_line1": "1 65942U 98067XP  25342.75246625  .00105605  00000+0  11867-2 0  9990",
        "tle_line2": "2 65942  51.6289 159.4206 0003646 205.1392 154.9425 15.61774772  9249"
      },
      "geometry": {
        "type": "Point",
        "coordinates": [
          -12.334183662829144,
          -15.418089861267074
        ]
      }
    },
    {
      "type": "Feature",
      "properties": {
        "norad_id": 65943,
        "name": "E-KAGAKU-1",
        "group": "stations",
        "lat": -51.553190145997455,
        "lon": 62.01394110209038,
        "alt_km": 395.6523866845282,
        "timestamp": "2025-12-09T14:52:24.959014+00:00",
        "meta_object_name": "E-KAGAKU-1",
        "meta_object_id": "1998-067XQ",
        "meta_epoch": "2025-12-08T17:43:35.861664",
        "meta_mean_motion": 15.58651727,
        "meta_eccentricity": 0.00029774,
        "meta_inclination": 51.6297,
        "meta_ra_of_asc_node": 160.0822,
        "meta_arg_of_pericenter": 178.8942,
        "meta_mean_anomaly": 181.2057,
        "meta_ephemeris_type": 0,
        "meta_classification_type": "U",
        "meta_norad_cat_id": 65943,
        "meta_element_set_no": 999,
        "meta_rev_at_epoch": 923,
        "meta_bstar": 0.00085624806,
        "meta_mean_motion_dot": 0.00067115,
        "meta_mean_motion_ddot": 0,
        "tle_line1": "1 65943U 98067XQ  25342.73860951  .00067115  00000+0  85625-3 0  9990",
        "tle_line2": "2 65943  51.6297 160.0822 0002977 178.8942 181.2057 15.58651727  9237"
      },
      "geometry": {
        "type": "Point",
        "coordinates": [
          62.01394110209038,
          -51.553190145997455
        ]
      }
    }
  ]
}